GOES 1 [-]              
1 08366U 75100A   15284.21810644 -.00000024  00000-0  00000+0 0  9998
2 08366  12.9166 325.6621 0007029 229.9086 143.4141  1.00235761146081
GOES 2 [-]              
1 10061U 77048A   15289.34293834 -.00000168  00000-0  00000+0 0  9990
2 10061  13.9905 334.3461 0015200 287.1851  61.3278  0.99401754 84773
GOES 3 [P]              
1 10953U 78062A   15289.21292668 -.00000102  00000-0  00000+0 0  9995
2 10953  14.0619 337.8335 0005485 188.1267 188.4417  1.00279602 89858
GOES 4 [-]              
1 11964U 80074A   15288.52406455 -.00000312  00000-0  00000+0 0  9991
2 11964  14.7625 341.5706 0028433 353.5325  13.1163  0.99232399 88962
GOES 5 [-]              
1 12472U 81049A   15289.41198925  .00000067  00000-0  00000+0 0  9994
2 12472  14.7068 351.6524 0007359 202.5920 202.8193  1.00235905 83881
GOES 6 [-]              
1 14050U 83041A   15289.46683434  .00000012  00000-0  00000+0 0  9991
2 14050  14.8176 356.4750 0006081 176.6263 255.1048  1.00231790176984
GOES 7 [-]              
1 17561U 87022A   15288.32036877 -.00000205  00000-0  00000+0 0  9996
2 17561  15.0024  12.3731 0003473 225.0185 181.8277  0.99893869 88035
GOES 8 [-]              
1 23051U 94022A   15287.97151058 -.00000201  00000-0  00000-0 0  9991
2 23051  10.5495  44.9928 0008790 196.7977 251.8129  0.98905536 85571
GOES 9 [-]              
1 23581U 95025A   15289.47701595  .00000006  00000-0  00000+0 0  9998
2 23581  10.0643  44.0828 0005673 119.5034 251.8638  0.98799741 74250
GOES 10 [-]             
1 24786U 97019A   15286.24040117 -.00000221  00000-0  00000+0 0  9999
2 24786   8.3652  48.2834 0032028 143.4539 224.4974  0.99123868 67401
GOES 11 [-]             
1 26352U 00022A   15288.70645225 -.00000283  00000-0  00000+0 0  9990
2 26352   3.7091  80.8651 0006600 111.6234 237.3452  0.99045728 56391
GOES 12 [-]             
1 26871U 01031A   15288.20570383 -.00000231  00000-0  00000-0 0  9998
2 26871   5.2088  64.9747 0008995 194.3684 151.7732  0.99138810 52116
GOES 13 [+]             
1 29155U 06018A   15289.39408500 -.00000256  00000-0  00000+0 0  9994
2 29155   0.0937 104.8070 0002097  24.5472 322.5895  1.00273196 34443
GOES 14 [S]             
1 35491U 09033A   15289.32913332 -.00000097  00000-0  00000+0 0  9994
2 35491   0.2841 268.1213 0006272 295.3326 195.0775  1.00272512 23086
GOES 15 [+]             
1 36411U 10008A   15289.30610480  .00000081  00000-0  00000+0 0  9999
2 36411   0.3009 268.2612 0003631 328.3581 123.3821  1.00282741 20613
